ENTRYSAT                
1 44429U 98067QP  19360.59401664  .00008247  00000-0  12972-3 0  9992
2 44429  51.6406 124.0584 0002842  48.3887 311.7347 15.54546857 27448
VCC C                   
1 44430U 98067QQ  19360.64953250  .00010517  00000-0  16150-3 0  9998
2 44430  51.6406 123.6826 0002939  56.6295 303.4977 15.54872854 26272
VCC B                   
1 44431U 98067QR  19360.55165143  .00007232  00000-0  11626-3 0  9998
2 44431  51.6409 124.5274 0003321  55.1625 304.9678 15.54156512 27372
DUCHIFAT-3              
1 44854U 19089C   19361.43902651  .00000175  00000-0  20651-4 0  9993
2 44854  36.9681  40.7248 0007323  96.7351 263.4234 14.98936226  2322
